RADFXSAT (FOX-1B)       
1 43017U 17073E   26068.59518419  .00011352  00000+0  51457-3 0  9993
2 43017  97.4852 297.8938 0154575 312.4525  46.3719 15.10873817450344
STARLINK-32302          
1 61621U 24191A   26068.25956639  .00000896  00000+0  42096-4 0  9997
2 61621  42.9981 156.6717 0001467 319.6331  40.4412 15.27558857 78225
