[{"OBJECT_NAME":"RADFXSAT (FOX-1B)","OBJECT_ID":"2017-073E","EPOCH":"2026-03-09T14:17:03.914016","MEAN_MOTION":15.10873817,"ECCENTRICITY":0.0154575,"INCLINATION":97.4852,"RA_OF_ASC_NODE":297.8938,"ARG_OF_PERICENTER":312.4525,"MEAN_ANOMALY":46.3719,"EPHEMERIS_TYPE":0,"CLASSIFICATION_TYPE":"U","NORAD_CAT_ID":43017,"ELEMENT_SET_NO":999,"REV_AT_EPOCH":45034,"BSTAR":0.00051457,"MEAN_MOTION_DOT":0.00011352,"MEAN_MOTION_DDOT":0},{"OBJECT_NAME":"STARLINK-32302","OBJECT_ID":"2024-191A","EPOCH":"2026-03-09T06:13:46.536096","MEAN_MOTION":15.27558857,"ECCENTRICITY":0.00014679,"INCLINATION":42.9981,"RA_OF_ASC_NODE":156.6717,"ARG_OF_PERICENTER":319.6331,"MEAN_ANOMALY":40.4412,"EPHEMERIS_TYPE":0,"CLASSIFICATION_TYPE":"U","NORAD_CAT_ID":61621,"ELEMENT_SET_NO":999,"REV_AT_EPOCH":7822,"BSTAR":4.2096458e-5,"MEAN_MOTION_DOT":8.96e-6,"MEAN_MOTION_DDOT":0}]
